GSAT0207 (GALILEO 15)   
1 41859U 16069A   26126.68442161  .00000038  00000+0  00000+0 0  9997
2 41859  55.4733 102.2336 0005890 319.6391  40.2855  1.70474045 58691
GSAT0212 (GALILEO 16)   
1 41860U 16069B   26128.88424574  .00000050  00000+0  00000+0 0  9995
2 41860  55.4727 102.1679 0004704 343.9510  16.0107  1.70474213 58981
GSAT0213 (GALILEO 17)   
1 41861U 16069C   26125.14546651  .00000030  00000+0  00000+0 0  9991
2 41861  55.4725 102.2790 0005790 303.9672  55.9420  1.70474575 58785
GSAT0214 (GALILEO 18)   
1 41862U 16069D   26128.22453356  .00000046  00000+0  00000+0 0  9990
2 41862  55.4730 102.1867 0004813 310.2812  49.6511  1.70474277 58968
GOES 16                 
1 41866U 16071A   26128.87955966 -.00000083  00000+0  00000+0 0  9994
2 41866   0.2417  85.6458 0001057 274.5437  78.4581  1.00272654 34706
TIANLIAN 1-04           
1 41869U 16072A   26128.79272326  .00000039  00000+0  00000+0 0  9991
2 41869   0.7672  83.0481 0040369  90.8605 154.9400  1.00268839 34902
GOKTURK 1A              
1 41875U 16073A   26128.98181491  .00000429  00000+0  93263-4 0  9993
2 41875  98.1284  24.2624 0001423  81.4557 278.6807 14.62804474503094
RESOURCESAT-2A          
1 41877U 16074A   26128.93814926 -.00000165  00000+0 -54998-4 0  9998
2 41877  98.7527 202.7606 0002265 161.2109 198.9152 14.21603559488725
WGS F8 (USA 272)        
1 41879U 16075A   26128.57341640 -.00000195  00000+0  00000+0 0  9991
2 41879   0.0135 310.8336 0000048 310.8932 320.9204  1.00270482 34429
FENGYUN 4A              
1 41882U 16077A   26128.92481312 -.00000347  00000+0  00000+0 0  9996
2 41882   2.2232  80.6825 0008018 143.2673  99.4979  1.00276651 34538
CYGFM05                 
1 41884U 16078A   26128.77992065  .00019024  00000+0  27464-3 0  9992
2 41884  34.9561 161.1813 0007218 148.5840 211.5316 15.54978543522610
CYGFM04                 
1 41885U 16078B   26128.41876004  .00024728  00000+0  30280-3 0  9995
2 41885  34.9318 133.1537 0007335 189.8202 170.2381 15.59330040522783
CYGFM02                 
1 41886U 16078C   26128.67982824  .00028873  00000+0  32129-3 0  9991
2 41886  34.9402 126.9879 0008586 192.6257 167.4255 15.61781368522984
CYGFM01                 
1 41887U 16078D   26128.78507453  .00019596  00000+0  27644-3 0  9993
2 41887  34.9391 162.5121 0006838 142.3988 217.7215 15.55601141522561
CYGFM08                 
1 41888U 16078E   26128.74455174  .00022862  00000+0  29436-3 0  9993
2 41888  34.9423 143.3414 0008852 172.3752 187.7108 15.58004215522817
CYGFM07                 
1 41890U 16078G   26128.70613386  .00023084  00000+0  29635-3 0  9991
2 41890  34.9440 131.9715 0007746 191.0467 169.0089 15.58092080522838
CYGFM03                 
1 41891U 16078H   26128.35668647  .00021918  00000+0  28171-3 0  9991
2 41891  34.9395 136.2418 0006724 177.3861 182.6899 15.58077446522756
ECHOSTAR 19             
1 41893U 16079A   26128.88103300 -.00000131  00000+0  00000+0 0  9994
2 41893   0.0128 276.4588 0001363 146.7171  23.6164  1.00271658 34300
ARASE (ERG)             
1 41896U 16080A   26128.76458874  .00000456  00000+0  11480-2 0  9991
2 41896  31.9189  23.9398 6994405  23.4231 356.9906  2.57621416 87262
TANSAT                  
1 41898U 16081A   26128.97712295  .00000150  00000+0  41815-4 0  9995
2 41898  98.5374 128.0782 0021847  71.2178 289.1388 14.59916800498906
YIJIAN                  
1 41899U 16081B   26128.94822119  .00000529  00000+0  11865-3 0  9991
2 41899  98.5378 125.6345 0022160  71.4964 288.8641 14.60717721498869
SPARK 1                 
1 41900U 16081C   26128.93748674  .00000550  00000+0  12547-3 0  9998
2 41900  98.5481 122.2181 0024961  81.7544 278.6485 14.59741757498549
SPARK 2                 
1 41901U 16081D   26128.90967716  .00000502  00000+0  11691-3 0  9992
2 41901  98.5481 117.5210 0026605  85.7987 274.6252 14.59119685498392
JCSAT-110A (JCSAT-15)   
1 41903U 16082A   26128.92203977 -.00000343  00000+0  00000+0 0  9991
2 41903   0.0187 269.0200 0001233 167.6074 232.1307  1.00280011 34361
STAR ONE D1             
1 41904U 16082B   26128.81231001 -.00000203  00000+0  00000+0 0  9994
2 41904   0.0362  90.0862 0002170 318.3702  26.6214  1.00273193 34374
TJS-2                   
1 41911U 17001A   26128.84212346  .00000002  00000+0  00000+0 0  9994
2 41911   0.7312  85.7790 0000907 326.7180 183.8652  1.00271968 34329
JILIN-1 03              
1 41914U 17002B   26128.93653257  .00011788  00000+0  29113-3 0  9991
2 41914  97.1968 136.6027 0004279 333.0020  27.1003 15.40641762515818
IRIDIUM 106             
1 41917U 17003A   26128.95535089  .00000013  00000+0 -23437-5 0  9994
2 41917  86.3936 104.9588 0002352  78.5400 281.6059 14.34217355487588
IRIDIUM 103             
1 41918U 17003B   26128.94266595  .00000045  00000+0  88454-5 0  9991
2 41918  86.3934 104.8638 0002473  92.8220 267.3259 14.34217564487603
IRIDIUM 109             
1 41919U 17003C   26128.94900796  .00000120  00000+0  35616-4 0  9995
2 41919  86.3935 104.9200 0002328  88.6337 271.5126 14.34218103487578
IRIDIUM 102             
1 41920U 17003D   26128.91729428 -.00000031  00000+0 -18077-4 0  9990
2 41920  86.3935 104.8578 0002129  86.2417 273.9022 14.34217067487657
IRIDIUM 105             
1 41921U 17003E   26128.87590520  .00000167  00000+0  52632-4 0  9998
2 41921  86.3956  73.3022 0002207  92.4758 267.6691 14.34211864489506
IRIDIUM 104             
1 41922U 17003F   26128.92997785  .00000116  00000+0  34310-4 0  9996
2 41922  86.3934 104.8942 0002326  94.4621 265.6841 14.34217105487649
IRIDIUM 114             
1 41923U 17003G   26128.93632288  .00000067  00000+0  16967-4 0  9995
2 41923  86.3932 104.8748 0002390  92.0876 268.0594 14.34217895487625
IRIDIUM 108             
1 41924U 17003H   26128.89484339  .00000005  00000+0 -54543-5 0  9999
2 41924  86.3953  73.1869 0002056  83.7698 276.3732 14.34217584489475
IRIDIUM 112             
1 41925U 17003J   26128.92363622 -.00000066  00000+0 -30606-4 0  9996
2 41925  86.3933 104.7243 0002142  90.4135 269.7306 14.34216913487643
IRIDIUM 111             
1 41926U 17003K   26128.91095172 -.00000052  00000+0 -25552-4 0  9997
2 41926  86.3936 104.7995 0002244  88.0975 272.0478 14.34216536487625
SBIRS GEO-4 (USA 273)   
1 41937U 17004A   26128.90444637  .00000132  00000+0  00000+0 0  9996
2 41937   2.1693  42.1540 0002363   3.7769 167.3112  1.00272669 34202
HISPASAT 36W-1          
1 41942U 17006A   26128.67915962 -.00000237  00000+0  00000+0 0  9999
2 41942   0.0010 268.8304 0001010 134.9805  31.2022  1.00271150 33841
TELKOM 3S               
1 41944U 17007A   26128.92359978 -.00000355  00000+0  00000+0 0  9990
2 41944   0.0143 256.9462 0002527 159.6593 260.6601  1.00272349 33746
INTELSAT 32E (IS-32E)   
1 41945U 17007B   26128.90326449 -.00000261  00000+0  00000+0 0  9992
2 41945   0.0182 283.8426 0000311  18.9927 205.9033  1.00274454 33836
CARTOSAT-2D             
1 41948U 17008A   26128.96983505  .00002745  00000+0  13361-3 0  9990
2 41948  97.4126 189.0012 0005262  30.3108 329.8430 15.19196997511629
SENTINEL-2B             
1 42063U 17013A   26128.90677788  .00000078  00000+0  46322-4 0  9993
2 42063  98.5690 204.2330 0001258  90.8591 269.2736 14.30817435479029
ECHOSTAR 23             
1 42070U 17014A   26128.92373626 -.00000049  00000+0  00000+0 0  9995
2 42070   0.0182 260.6313 0001980 143.7638  45.0117  1.00270805 33521
WGS F9 (USA 275)        
1 42075U 17016A   26128.89785966 -.00000089  00000+0  00000+0 0  9996
2 42075   0.0098 241.8814 0000664 232.8973  63.1994  1.00264522 33500
SES-10                  
1 42432U 17017A   26128.89534986 -.00000265  00000+0  00000+0 0  9994
2 42432   0.0303  46.5779 0002924  10.3656  65.2205  1.00271780 33360
CHINASAT 16 (SJ-13)     
1 42662U 17018A   26128.57723369 -.00000344  00000+0  00000+0 0  9998
2 42662   0.1029  89.7036 0003911 154.0036 301.0390  1.00273698 33356
KOREASAT 7              
1 42691U 17023A   26128.92325311 -.00000354  00000+0  00000+0 0  9991
2 42691   0.0238 326.5311 0000785  76.6658 271.8113  1.00273045 32972
SGDC                    
1 42692U 17023B   26128.57912005 -.00000242  00000+0  00000+0 0  9991
2 42692   0.0361  85.3961 0003213 338.4173 296.2274  1.00270076 33006
GSAT-9                  
1 42695U 17024A   26128.91952642 -.00000278  00000+0  00000+0 0  9993
2 42695   0.0798  68.2075 0002338 341.2981 245.6098  1.00270112 32906
INMARSAT 5-F4           
1 42698U 17025A   26128.91146639  .00000083  00000+0  00000+0 0  9991
2 42698   0.0183 284.5522 0000260  94.5369 232.2740  1.00269533 32885
SES-15                  
1 42709U 17026A   26128.73205634  .00000067  00000+0  00000+0 0  9998
2 42709   0.0216 324.5942 0000722  82.6486 313.7253  1.00271067  7035
COSMOS 2518             
1 42719U 17027A   26128.26893566 -.00001309  00000+0  00000+0 0  9996
2 42719  63.0739 253.2075 6992884 273.6115  15.7572  2.00925452 65601
QZS-2 (MICHIBIKI-2)     
1 42738U 17028A   26125.63528612 -.00000201  00000+0  00000+0 0  9993
2 42738  39.4938 243.7793 0763138 268.8214  78.8072  1.00295347  7196
VIASAT-2                
1 42740U 17029A   26128.89293402 -.00000257  00000+0  00000+0 0  9995
2 42740   0.0184 276.2576 0000389 133.2618  68.7876  1.00272039 32811
EUTELSAT 172B           
1 42741U 17029B   26128.86300626  .00000002  00000+0  00000+0 0  9997
2 42741   0.0224 170.9482 0000210 307.0353 231.3918  1.00271101 33346
GSAT-19                 
1 42747U 17031A   26128.83848345  .00000133  00000+0  00000+0 0  9993
2 42747   0.0395  90.9749 0007136 328.7174 156.7115  1.00271655 32750
ECHOSTAR 21             
1 42749U 17032A   26128.90227969  .00000071  00000+0  00000+0 0  9998
2 42749   1.7769 353.1113 0002491  55.4952 153.2065  1.00271091 32706
HXMT (HUIYAN)           
1 42758U 17034A   26128.92529152  .00004002  00000+0  20151-3 0  9992
2 42758  43.0151  41.5992 0032987 256.7815 102.9352 15.18122168491691
